X-SAT                   
1 37389U 11015C   24140.12267133  .00000443  00000+0  20761-3 0  9993
2 37389  98.2935 145.7078 0015200  55.8368 304.4251 14.24692129680095
GCOM-W1 (SHIZUKU)       
1 38337U 12025A   24139.82115914  .00002333  00000+0  52750-3 0  9996
2 38337  98.2014  80.2910 0002026  87.5099 326.9786 14.57129627638459
NUSTAR                  
1 38358U 12031A   24139.91668981  .00022950  00000+0  19196-2 0  9996
2 38358   6.0274 278.6117 0008872  68.0389 307.3985 14.95956850649892
NEOSSAT                 
1 39089U 13009D   24139.76221568  .00000625  00000+0  23372-3 0  9990
2 39089  98.4052 327.9021 0011027 356.6632   3.4478 14.35155307587780
BRITE-AUSTRIA           
1 39091U 13009F   24139.77518302  .00000727  00000+0  26578-3 0  9993
2 39091  98.3864 328.1419 0010172 354.6436   5.4640 14.35789075588045
IRIS                    
1 39197U 13033A   24139.86205204  .00003929  00000+0  50054-3 0  9994
2 39197  97.9653 330.6574 0024705 276.6919  83.1482 14.81903971587746
HISAKI (SPRINT-A)       
1 39253U 13049A   24140.21660843  .00000263  00000+0  26864-3 0  9999
2 39253  29.7189 118.2515 0136796 344.4067  15.2319 13.55393653529418
CASSIOPE                
1 39265U 13055A   24139.89519085  .00035428  00000+0  74672-3 0  9993
2 39265  80.9559 228.3875 0501021 358.1417   1.7901 14.69198977554098
STSAT-3                 
1 39422U 13066G   24140.17273512  .00007260  00000+0  67059-3 0  9999
2 39422  97.5187 120.8734 0023133  96.8540 263.5313 14.94679374570489
SWARM B                 
1 39451U 13067A   24140.20609821  .00007512  00000+0  34635-3 0  9996
2 39451  87.7550 211.1563 0002870  99.7098 260.4471 15.20114171582208
SWARM A                 
1 39452U 13067B   24140.14408605  .00011650  00000+0  37573-3 0  9999
2 39452  87.3425 333.5619 0002720 106.8190 253.3359 15.32029149589367
SWARM C                 
1 39453U 13067C   24140.14399091  .00011702  00000+0  37740-3 0  9992
2 39453  87.3422 332.1551 0002669 106.9639 253.1904 15.32031942589320
BRITE-CA1 (TORONTO)     
1 40020U 14033L   24139.87543893  .00004476  00000+0  72684-3 0  9993
2 40020  97.8727 278.0398 0083299 184.8370 175.2041 14.69313364530566
OCO 2                   
1 40059U 14035A   24140.15064988  .00001968  00000+0  44679-3 0  9999
2 40059  98.2009  81.3731 0002103  82.4653 277.6784 14.57110078525529
BRITE-PL2 (HEWELIUSZ)   
1 40119U 14049B   24140.18315971  .00005219  00000+0  56319-3 0  9992
2 40119  97.8806 239.9867 0017268  99.9996 260.3170 14.88706329528354
RESURS-P 2              
1 40360U 14087A   24140.17040900  .00039530  00000+0  53280-3 0  9995
2 40360  97.1513 226.5806 0006660  56.1109 304.0780 15.57701196526546
MMS 1                   
1 40482U 15011A   24140.25001157 -.00000077  00000+0  00000+0 0  9991
2 40482  46.0669  13.5829 9112919 144.7003  50.4872  0.28371692 15291
MMS 2                   
1 40483U 15011B   24140.25001157 -.00000077  00000+0  00000+0 0  9992
2 40483  46.0562  13.5847 9113034 144.6943  50.5071  0.28380794 15278
MMS 3                   
1 40484U 15011C   24140.25001157 -.00000077  00000+0  00000+0 0  9993
2 40484  46.0664  13.5793 9113508 144.7094  50.4670  0.28371670 15273
MMS 4                   
1 40485U 15011D   24140.25001157 -.00000077  00000+0  00000+0 0  9994
2 40485  46.0587  13.5914 9112461 144.6935  50.4904  0.28380763 15276
ASTROSAT                
1 40930U 15052A   24139.52022446  .00004395  00000+0  49578-3 0  9999
2 40930   5.9958 211.3478 0008223   6.6052 353.4184 14.78885382467014
DAMPE                   
1 41173U 15078A   24140.23409248  .00003322  00000+0  12782-3 0  9992
2 41173  97.4288 133.8895 0011291 240.7168 119.2943 15.27045695468567
PISAT                   
1 41784U 16059B   24140.07499226  .00003617  00000+0  66585-3 0  9994
2 41784  97.8353 163.4143 0032243 105.5920 254.8847 14.65825405408391
HXMT (HUIYAN)           
1 42758U 17034A   24140.14229187  .00011493  00000+0  63233-3 0  9993
2 42758  43.0143  75.5042 0015350 329.7005  30.2953 15.13961320382451
FLYING LAPTOP           
1 42831U 17042G   24139.93412804  .00005997  00000+0  55243-3 0  9993
2 42831  97.3863 322.5810 0013161 167.7310 192.4235 14.94987485372764
ZHANGHENG 1 (CSES)      
1 43194U 18015C   24140.12911257  .00021505  00000+0  96118-3 0  9995
2 43194  97.6056 283.5724 0007646 241.6010 118.4455 15.21322486349271
SALSAT                  
1 46495U 20068K   24139.84272447  .00015178  00000+0  86777-3 0  9990
2 46495  97.8137  98.4101 0015611  59.0364 301.2397 15.12679631199879
IXPE                    
1 49954U 21121A   24139.91668981  .00012407  00000+0  95596-3 0  9995
2 49954   0.2306 250.8822 0009790 205.3590 302.3254 14.97862297  5795
<!DOCTYPE html PUBLIC "-//W3C//DTD XHTML 1.0 Strict//EN" "http://www.w3.org/TR/xhtml1/DTD/xhtml1-strict.dtd">
<html xmlns="http://www.w3.org/1999/xhtml">
<head>
<meta http-equiv="Content-Type" content="text/html; charset=iso-8859-1"/>
<title>404 - File Not Found.</title>
<style type="text/css">
<!--
body{margin:0;font-size:.7em;font-family:Verdana, Arial, Helvetica, sans-serif;background:#EEEEEE;}
fieldset{padding:0 15px 10px 15px;}
h1{font-size:2.4em;margin:0;color:#FFF;}
h2{font-size:1.7em;margin:0;color:#CC0000;}
h3{font-size:1.2em;margin:10px 0 0 0;color:#000000;}
#header{width:96%;margin:0 0 0 0;padding:6px 2% 6px 2%;font-family:"trebuchet MS", Verdana, sans-serif;color:#FFF;
background-color:#555555;}
#content{margin:0 0 0 2%;position:relative;}
.content-container{background:#FFF;width:96%;margin-top:8px;padding:10px;position:relative;}
-->
</style>
</head>
<body>
<div id="header"><h1>Server Error</h1></div>
<div id="content">
 <div class="content-container"><fieldset>
  <h2>404 - File Not Found.</h2>
  <h3>File not found for celestrak.org/NORAD/elements/ses.txt.</h3>
  <h3>Please contact <a href="mailto:ts.kelso@celestrak.org">ts.kelso@celestrak.org</a> if you have other questions.</h3>
 </fieldset></div>
</div>
</body>
</html>
ISS (ZARYA)             
1 25544U 98067A   24140.20295706  .00030653  00000+0  51361-3 0  9997
2 25544  51.6379  99.0325 0003255 185.3717 191.2672 15.51568711454054
CSS (TIANHE)            
1 48274U 21035A   24140.03050157  .00060909  00000+0  60831-3 0  9992
2 48274  41.4679 261.1638 0002908   8.4296 351.6592 15.64702353174530
ISS (NAUKA)             
1 49044U 21066A   24139.87795327  .00025788  00000+0  43391-3 0  9995
2 49044  51.6363 100.6499 0003412 184.4741 175.6218 15.51546802453925
FREGAT DEB              
1 49271U 11037PF  24140.11741641  .00050947  00000+0  11337+0 0  9999
2 49271  51.6761  71.3986 0979389  60.7529 308.7652 12.15229332131667
CSS (WENTIAN)           
1 53239U 22085A   24139.77519367  .00066259  00000+0  66202-3 0  9999
2 53239  41.4678 262.7257 0002874   6.3730 353.7147 15.64663648102478
CSS (MENGTIAN)          
1 54216U 22143A   24139.77519367  .00066259  00000+0  66202-3 0  9990
2 54216  41.4678 262.7257 0002874   6.3730 353.7147 15.64663648 88365
ISS DEB [SPX-28 IPA FSE]
1 57212U 98067VP  24140.16056833  .01677272  11848-4  83665-3 0  9999
2 57212  51.6178  57.1470 0002616 196.0096 167.1896 16.20099545 51541
ISS DEB                 
1 58229U 98067WC  24139.93403249  .00243145  00000+0  10175-2 0  9993
2 58229  51.6268  82.2148 0004651 103.3413 256.8109 15.84367318 31036
PROGRESS-MS 25          
1 58460U 23184A   24139.87795327  .00025788  00000+0  43391-3 0  9990
2 58460  51.6363 100.6499 0003412 184.4741 175.6218 15.51546802453927
BEAK                    
1 58612U 98067WD  24140.15390793  .00280523  00000+0  13367-2 0  9991
2 58612  51.6317  85.2221 0004687 116.0062 244.1423 15.81502816 23965
TIANZHOU-7              
1 58811U 24013A   24139.77519367  .00066259  00000+0  66202-3 0  9993
2 58811  41.4678 262.7257 0002874   6.3730 353.7147 15.64663648172421
CYGNUS NG-20            
1 58898U 24021A   24139.87795327  .00025788  00000+0  43391-3 0  9996
2 58898  51.6363 100.6499 0003412 184.4741 175.6218 15.51546802453922
PROGRESS-MS 26          
1 58961U 24029A   24139.87795327  .00025788  00000+0  43391-3 0  9995
2 58961  51.6363 100.6499 0003412 184.4741 175.6218 15.51546802453923
CREW DRAGON 8           
1 59097U 24042A   24139.87795327  .00025788  00000+0  43391-3 0  9991
2 59097  51.6363 100.6499 0003412 184.4741 175.6218 15.51546802453924
SOYUZ-MS 25             
1 59294U 24055A   24139.87795327  .00025788  00000+0  43391-3 0  9994
2 59294  51.6363 100.6499 0003412 184.4741 175.6218 15.51546802453923
MICROORBITER-1          
1 59483U 98067WF  24140.17216282  .00128052  00000+0  16057-2 0  9997
2 59483  51.6338  98.1151 0003977 157.8481 202.2684 15.58810208  5942
CURTIS                  
1 59507U 98067WG  24140.12341642  .00107563  00000+0  14358-2 0  9994
2 59507  51.6338  98.5370 0002585 165.5545 194.5521 15.57236744  5946
KASHIWA                 
1 59508U 98067WH  24140.16576347  .00151273  00000+0  18361-2 0  9996
2 59508  51.6332  98.0715 0004081 157.4621 202.6552 15.59576778  5959
1998-067WJ              
1 59559U 98067WJ  24140.14624267  .00097764  00000+0  13580-2 0  9997
2 59559  51.6364  98.6950 0005005 125.6099 234.5360 15.56201920  4816
1998-067WK              
1 59560U 98067WK  24140.11859344  .00186546  00000+0  22615-2 0  9998
2 59560  51.6344  98.5096 0007670 137.7466 222.4119 15.59454999  4736
1998-067WL              
1 59561U 98067WL  24139.59347038  .00054136  00000+0  83320-3 0  9991
2 59561  51.6367 101.7548 0002977 140.9306 219.1900 15.53667761  4698
BURSTCUBE               
1 59562U 98067WM  24140.14901549  .00105586  00000+0  14746-2 0  9999
2 59562  51.6366  98.7133 0003375 169.4014 190.7049 15.56025932  4798
SNOOPI                  
1 59563U 98067WN  24139.38570061  .00105035  00000+0  15181-2 0  9998
2 59563  51.6358 102.6176 0003602 164.9574 195.1525 15.55096211  4678
